TRITON-1                
1 39427U 13066M   26161.00218096  .00001842  00000+0  22564-3 0  9999
2 39427  97.8246  70.9725 0088315 257.7469 101.3843 14.81682119673027
GOMX-1                  
1 39430U 13066Q   26160.89989683  .00001996  00000+0  30354-3 0  9992
2 39430  97.6494   1.8227 0130145 100.6723 260.9170 14.69433394668846
CUBEBUG-2 (LO-74)       
1 39440U 13066AA  26160.82855144  .00003514  00000+0  32653-3 0  9992
2 39440  97.8901 109.7759 0059110  52.8866 307.7734 14.93703888675892
NEE-02 KRYSAOR          
1 39441U 13066AB  26160.80525174  .00001836  00000+0  20499-3 0  9998
2 39441  97.8886 100.0728 0067737  93.8296 267.0667 14.86587179675103
FUNCUBE-1 (AO-73)       
1 39444U 13066AE  26160.63191957  .00005129  00000+0  32071-3 0  9998
2 39444  97.8267 131.9204 0034885 227.2487 132.5804 15.09398599678524
UWE-3                   
1 39446U 13066AG  26160.12782108  .00003499  00000+0  30256-3 0  9999
2 39446  97.8686 116.1479 0048769 348.2293  11.7784 14.96959057676378
SMDC ONE 2.4            
1 39469U 13072H   26160.69408141  .00008341  00000+0  32471-3 0  9997
2 39469 120.4933 323.1565 0144250  11.0417 349.3773 15.18040809116695
COSMOS 2488 (RODNIK-S 7)
1 39483U 13076A   26160.87368999  .00000030  00000+0  14573-3 0  9993
2 39483  82.4835 173.2517 0020755 110.3868 249.9443 12.42905527564985
COSMOS 2489 (RODNIK-S 8)
1 39484U 13076B   26160.92923331  .00000084  00000+0  53305-3 0  9992
2 39484  82.4872 174.5934 0022592 110.3101 250.0410 12.42879673565042
COSMOS 2490 (RODNIK-S 9)
1 39485U 13076C   26160.90111150  .00000043  00000+0  24076-3 0  9997
2 39485  82.4818 172.6816 0022572 125.3186 235.0008 12.42877934564973
KAZEOSAT 1              
1 39731U 14024A   26160.94445593  .00000068  00000+0  33642-4 0  9997
2 39731  98.3202 233.5716 0001463  75.6582 284.4770 14.42076956637511
COSMOS 2496 (RODNIK-S *)
1 39761U 14028A   26160.93914807 -.00000008  00000+0 -12804-3 0  9994
2 39761  82.4443 113.2706 0021267  93.7947 266.5565 12.42878221546614
COSMOS 2497 (RODNIK-S *)
1 39762U 14028B   26160.91452096  .00000054  00000+0  32074-3 0  9990
2 39762  82.4491 114.9729 0021857  89.0773 271.2811 12.42894120546614
COSMOS 2498 (RODNIK-S *)
1 39763U 14028C   26160.89262584  .00000088  00000+0  56250-3 0  9998
2 39763  82.4452 113.4770 0022542  88.7473 271.6189 12.42980239546649
HODOYOSHI-4             
1 40011U 14033B   26160.90659382  .00000733  00000+0  84951-4 0  9997
2 40011  97.5458 346.0812 0023118 333.4695  26.5337 14.88110479647723
UNISAT-6                
1 40012U 14033C   26160.67016832  .00002487  00000+0  27030-3 0  9991
2 40012  97.7869 313.5156 0046431  93.3560 267.2970 14.88205982645042
DEIMOS-2                
1 40013U 14033D   26160.94836922  .00002264  00000+0  21912-3 0  9998
2 40013  97.5842  35.6915 0002048  58.3893 301.7527 14.93711621636649
BUGSAT-1 (TITA)         
1 40014U 14033E   26160.97162834  .00004725  00000+0  25114-3 0  9998
2 40014  98.0417 253.0989 0027481 202.8957 157.1051 15.15506305654748
SAUDISAT 4              
1 40016U 14033G   26160.67957305  .00000695  00000+0  98056-4 0  9990
2 40016  97.7575 307.0745 0046236  97.6565 262.9902 14.79534459644968
APRIZESAT 9             
1 40018U 14033J   26160.33415850  .00000594  00000+0  94845-4 0  9999
2 40018  97.9050 293.7252 0065171 224.6876 134.9071 14.74203919642401
BRITE-CA1 (TORONTO)     
1 40020U 14033L   26160.63182130  .00000647  00000+0  10505-3 0  9996
2 40020  97.9730 289.6994 0077411 301.6359  57.7312 14.72666383641100
