OBJECT_NAME,OBJECT_ID,EPOCH,MEAN_MOTION,ECCENTRICITY,INCLINATION,RA_OF_ASC_NODE,ARG_OF_PERICENTER,MEAN_ANOMALY,EPHEMERIS_TYPE,CLASSIFICATION_TYPE,NORAD_CAT_ID,ELEMENT_SET_NO,REV_AT_EPOCH,BSTAR,MEAN_MOTION_DOT,MEAN_MOTION_DDOT
TRITON-1,2013-066M,2026-06-10T00:03:08.434944,14.81682119,.00883154,97.8246,70.9725,257.7469,101.3843,0,U,39427,999,67302,.225637E-3,.1842E-4,0
GOMX-1,2013-066Q,2026-06-09T21:35:51.086112,14.69433394,.01301451,97.6494,1.8227,100.6723,260.9170,0,U,39430,999,66884,.30354029E-3,.1996E-4,0
CUBEBUG-2 (LO-74),2013-066AA,2026-06-09T19:53:06.844416,14.93703888,.00591101,97.8901,109.7759,52.8866,307.7734,0,U,39440,999,67589,.32652584E-3,.3514E-4,0
NEE-02 KRYSAOR,2013-066AB,2026-06-09T19:19:33.750336,14.86587179,.0067737,97.8886,100.0728,93.8296,267.0667,0,U,39441,999,67510,.20498756E-3,.1836E-4,0
FUNCUBE-1 (AO-73),2013-066AE,2026-06-09T15:09:57.850848,15.09398599,.00348855,97.8267,131.9204,227.2487,132.5804,0,U,39444,999,67852,.32071403E-3,.5129E-4,0
UWE-3,2013-066AG,2026-06-09T03:04:03.741312,14.96959057,.00487694,97.8686,116.1479,348.2293,11.7784,0,U,39446,999,67637,.30256314E-3,.3499E-4,0
SMDC ONE 2.4,2013-072H,2026-06-09T16:39:28.633824,15.18040809,.01442502,120.4933,323.1565,11.0417,349.3773,0,U,39469,999,11669,.32471276E-3,.8341E-4,0
COSMOS 2488 (RODNIK-S 7),2013-076A,2026-06-09T20:58:06.815136,12.42905527,.00207558,82.4835,173.2517,110.3868,249.9443,0,U,39483,999,56498,.14572772E-3,.3E-6,0
COSMOS 2489 (RODNIK-S 8),2013-076B,2026-06-09T22:18:05.757984,12.42879673,.00225929,82.4872,174.5934,110.3101,250.0410,0,U,39484,999,56504,.53304693E-3,.84E-6,0
COSMOS 2490 (RODNIK-S 9),2013-076C,2026-06-09T21:37:36.033600,12.42877934,.00225729,82.4818,172.6816,125.3186,235.0008,0,U,39485,999,56497,.24075654E-3,.43E-6,0
KAZEOSAT 1,2014-024A,2026-06-09T22:40:00.992352,14.42076956,.00014635,98.3202,233.5716,75.6582,284.4770,0,U,39731,999,63751,.33641598E-4,.68E-6,0
COSMOS 2496 (RODNIK-S 10),2014-028A,2026-06-09T22:32:22.393248,12.42878221,.00212674,82.4443,113.2706,93.7947,266.5565,0,U,39761,999,54661,-.12803774E-3,-.8E-7,0
COSMOS 2497 (RODNIK-S 11),2014-028B,2026-06-09T21:56:54.610944,12.42894120,.00218578,82.4491,114.9729,89.0773,271.2811,0,U,39762,999,54661,.32074026E-3,.54E-6,0
COSMOS 2498 (RODNIK-S 12),2014-028C,2026-06-09T21:25:22.872576,12.42980239,.00225426,82.4452,113.4770,88.7473,271.6189,0,U,39763,999,54664,.56249778E-3,.88E-6,0
HODOYOSHI-4,2014-033B,2026-06-09T21:45:29.706048,14.88110479,.00231186,97.5458,346.0812,333.4695,26.5337,0,U,40011,999,64772,.8495076E-4,.733E-5,0
UNISAT-6,2014-033C,2026-06-09T16:05:02.542848,14.88205982,.00464311,97.7869,313.5156,93.3560,267.2970,0,U,40012,999,64504,.27030078E-3,.2487E-4,0
DEIMOS-2,2014-033D,2026-06-09T22:45:39.100608,14.93711621,.00020489,97.5842,35.6915,58.3893,301.7527,0,U,40013,999,63664,.21911632E-3,.2264E-4,0
BUGSAT-1 (TITA),2014-033E,2026-06-09T23:19:08.688576,15.15506305,.0027481,98.0417,253.0989,202.8957,157.1051,0,U,40014,999,65474,.25114099E-3,.4725E-4,0
SAUDISAT 4,2014-033G,2026-06-09T16:18:35.111520,14.79534459,.00462365,97.7575,307.0745,97.6565,262.9902,0,U,40016,999,64496,.98056281E-4,.695E-5,0
APRIZESAT 9,2014-033J,2026-06-09T08:01:11.294400,14.74203919,.00651711,97.9050,293.7252,224.6876,134.9071,0,U,40018,999,64240,.94845279E-4,.594E-5,0
BRITE-CA1 (TORONTO),2014-033L,2026-06-09T15:09:49.360320,14.72666383,.00774112,97.9730,289.6994,301.6359,57.7312,0,U,40020,999,64110,.10504619E-3,.647E-5,0
